STAR ONE D2             
1 49055U 21069A   26161.53997559  .00000000  00000+0  00000+0 0  9997
2 49055   0.0139 348.7558 0002001 118.3258 276.1001  1.00267877 17877
EUTELSAT QUANTUM        
1 49056U 21069B   26161.99849971  .00000143  00000+0  00000+0 0  9990
2 49056   0.0131  11.3115 0002186  63.7562 231.4544  1.00273029 17868
ZHONGXING-2E            
1 49062U 21071A   26162.64463284 -.00000275  00000+0  00000+0 0  9999
2 49062   0.0395 238.4187 0001706 248.8864 102.8237  1.00272090 17986
TJS-7                   
1 49115U 21077A   26162.60349395 -.00000107  00000+0  00000+0 0  9990
2 49115   0.4931  86.1743 0002192 336.1263 315.4351  1.00270394  9496
CHINASAT 9B             
1 49125U 21080A   26162.66643882 -.00000296  00000+0  00000+0 0  9998
2 49125   0.0406  97.1358 0001438  11.2185 133.0022  1.00271289 17593
SES-17                  
1 49332U 21095A   26159.54432367 -.00000256  00000+0  00000+0 0  9997
2 49332   0.0256  35.0415 0001024  45.9352 304.8147  1.00269944 17762
SYRACUSE 4A             
1 49333U 21095B   26160.27958948  .00000152  00000+0  00000+0 0  9992
2 49333   0.0174 339.6684 0001405  95.7554 328.3909  1.00270522 17865
QZS-1R (MICHIBIKI-1R)   
1 49336U 21096A   26161.65003756 -.00000241  00000+0  00000+0 0  9997
2 49336  37.4481  79.6817 0754393 271.6562 276.0833  1.00257812 16947
ZHONGXING-1D            
1 49505U 21114A   26162.57749742 -.00000319  00000+0  00000+0 0  9996
2 49505   0.0326 239.3516 0000454 336.3366  22.3341  1.00272042 16761
STPSAT-6                
1 49817U 21118A   26162.60106727 -.00000029  00000+0  00000+0 0  9998
2 49817   0.3057  85.4533 0001435 249.4774  29.7304  1.00273007 16512
EXPRESS AMU-7           
1 50001U 21123A   26162.65192008 -.00000226  00000+0  00000+0 0  9992
2 50001   0.0155 288.9441 0000300  36.9268 313.8240  1.00271959 16486
EXPRESS AMU-3           
1 50002U 21123B   26161.99352397 -.00000304  00000+0  00000+0 0  9995
2 50002   0.0171 307.4811 0000361  46.5045   6.0257  1.00272925  6976
TIANLIAN 2-02           
1 50005U 21124A   26162.54419965  .00000003  00000+0  00000+0 0  9991
2 50005   0.7856  86.2331 0001221 205.6925 334.8547  1.00271863 16566
TURKSAT 5B              
1 50212U 21126A   26159.99369375  .00000162  00000+0  00000+0 0  9993
2 50212   0.0683 338.5411 0003609  18.8248 299.7491  1.00271431 16213
INMARSAT 6-F1           
1 50319U 21128A   26159.71676975 -.00000156  00000+0  00000+0 0  9994
2 50319   0.0152 289.1871 0000124 257.7540  51.9615  1.00272678 16176
TJS-9                   
1 50574U 21135A   26162.68652220 -.00000282  00000+0  00000+0 0  9992
2 50574   0.0500 253.5164 0004475 155.8458 235.0195  1.00270168 16377
USA 324                 
1 51280U 22006A   26157.08795008 -.00000058  00000+0  00000+0 0  9996
2 51280   0.7690  83.2777 0002840 165.6787 110.1567  1.00289779 16021
GOES 18                 
1 51850U 22021A   26162.59604058  .00000113  00000+0  00000+0 0  9993
2 51850   0.0140  95.8701 0000458  58.4855 183.1543  1.00271589  6530
ZHONGXING-6D            
1 52255U 22038A   26161.93246131 -.00000336  00000+0  00000+0 0  9990
2 52255   0.0278 271.0806 0000190 196.4429 252.4903  1.00268512 15362
NILESAT 301             
1 52817U 22061A   26159.62750225 -.00000042  00000+0  00000+0 0  9991
2 52817   0.0573  29.1411 0005407  14.7863  71.9873  1.00271880 14651
CMS-02 (GSAT-24)        
1 52903U 22067A   26161.87537047 -.00000147  00000+0  00000+0 0  9994
2 52903   0.0421 130.5636 0001628 238.5950 288.2032  1.00270239 14544
MEASAT 3D               
1 52904U 22067B   26162.49874539 -.00000224  00000+0  00000+0 0  9990
2 52904   0.0385 314.5524 0000598 104.6134 111.7111  1.00269263 14594
SES-22                  
1 52933U 22071A   26162.59569391  .00000121  00000+0  00000+0 0  9990
2 52933   0.0165 301.7055 0001361 127.3713 266.3223  1.00268986  7463
WFOV (USA 332)          
1 52940U 22073A   26162.57550409 -.00000347  00000+0  00000+0 0  9999
2 52940   3.6958  78.5978 0002154 238.8559 268.8999  1.00269624 14319
TIANLIAN 2-03           
1 53100U 22078A   26162.26877714  .00000089  00000+0  00000+0 0  9992
2 53100   0.6570  76.9255 0001596 322.4291 327.6093  1.00271794 14485
SBIRS GEO-6 (USA 336)   
1 53355U 22092A   26162.57938519 -.00000276  00000+0  00000+0 0  9994
2 53355   3.2680 317.3903 0001821 119.5000 170.6244  1.00270855 14171
EUTELSAT KONNECT VHTS   
1 53765U 22110A   26160.62755586  .00000034  00000+0  00000+0 0  9996
2 53765   0.0647 103.4177 0002603 320.1706  63.0435  1.00269352  6766
ZHONGXING-1E            
1 53813U 22112A   26162.49675206 -.00000132  00000+0  00000+0 0  9999
2 53813   0.0524 102.4236 0000241 193.9869 223.6538  1.00269691 13796
