OBJECT_NAME,OBJECT_ID,EPOCH,MEAN_MOTION,ECCENTRICITY,INCLINATION,RA_OF_ASC_NODE,ARG_OF_PERICENTER,MEAN_ANOMALY,EPHEMERIS_TYPE,CLASSIFICATION_TYPE,NORAD_CAT_ID,ELEMENT_SET_NO,REV_AT_EPOCH,BSTAR,MEAN_MOTION_DOT,MEAN_MOTION_DDOT
STAR ONE D2,2021-069A,2026-06-10T12:57:33.890976,1.00267877,.00020013,0.0139,348.7558,118.3258,276.1001,0,U,49055,999,1787,0,0,0
EUTELSAT QUANTUM,2021-069B,2026-06-10T23:57:50.374944,1.00273029,.00021869,0.0131,11.3115,63.7562,231.4544,0,U,49056,999,1786,0,.143E-5,0
ZHONGXING-2E,2021-071A,2026-06-11T15:28:16.277376,1.00272090,.00017062,0.0395,238.4187,248.8864,102.8237,0,U,49062,999,1798,0,-.275E-5,0
TJS-7,2021-077A,2026-06-11T14:29:01.877280,1.00270394,.00021928,0.4931,86.1743,336.1263,315.4351,0,U,49115,999,949,0,-.107E-5,0
CHINASAT 9B,2021-080A,2026-06-11T15:59:40.314048,1.00271289,.00014387,0.0406,97.1358,11.2185,133.0022,0,U,49125,999,1759,0,-.296E-5,0
SES-17,2021-095A,2026-06-08T13:03:49.565088,1.00269944,.00010243,0.0256,35.0415,45.9352,304.8147,0,U,49332,999,1776,0,-.256E-5,0
SYRACUSE 4A,2021-095B,2026-06-09T06:42:36.531072,1.00270522,.00014053,0.0174,339.6684,95.7554,328.3909,0,U,49333,999,1786,0,.152E-5,0
QZS-1R (MICHIBIKI-1R),2021-096A,2026-06-10T15:36:03.245184,1.00257812,.07543935,37.4481,79.6817,271.6562,276.0833,0,U,49336,999,1694,0,-.241E-5,0
ZHONGXING-1D,2021-114A,2026-06-11T13:51:35.777088,1.00272042,.00004547,0.0326,239.3516,336.3366,22.3341,0,U,49505,999,1676,0,-.319E-5,0
STPSAT-6,2021-118A,2026-06-11T14:25:32.212128,1.00273007,.00014357,0.3057,85.4533,249.4774,29.7304,0,U,49817,999,1651,0,-.29E-6,0
EXPRESS AMU-7,2021-123A,2026-06-11T15:38:45.894912,1.00271959,.00003005,0.0155,288.9441,36.9268,313.8240,0,U,50001,999,1648,0,-.226E-5,0
EXPRESS AMU-3,2021-123B,2026-06-10T23:50:40.471008,1.00272925,.00003615,0.0171,307.4811,46.5045,6.0257,0,U,50002,999,697,0,-.304E-5,0
TIANLIAN 2-02,2021-124A,2026-06-11T13:03:38.849760,1.00271863,.0001221,0.7856,86.2331,205.6925,334.8547,0,U,50005,999,1656,0,.3E-7,0
TURKSAT 5B,2021-126A,2026-06-08T23:50:55.140000,1.00271431,.00036094,0.0683,338.5411,18.8248,299.7491,0,U,50212,999,1621,0,.162E-5,0
INMARSAT 6-F1,2021-128A,2026-06-08T17:12:08.906400,1.00272678,.00001242,0.0152,289.1871,257.7540,51.9615,0,U,50319,999,1617,0,-.156E-5,0
TJS-9,2021-135A,2026-06-11T16:28:35.518080,1.00270168,.00044755,0.0500,253.5164,155.8458,235.0195,0,U,50574,999,1637,0,-.282E-5,0
USA 324,2022-006A,2026-06-06T02:06:38.886912,1.00289779,.000284,0.7690,83.2777,165.6787,110.1567,0,U,51280,999,1602,0,-.58E-6,0
GOES 18,2022-021A,2026-06-11T14:18:17.906112,1.00271589,.00004583,0.0140,95.8701,58.4855,183.1543,0,U,51850,999,653,0,.113E-5,0
ZHONGXING-6D,2022-038A,2026-06-10T22:22:44.657184,1.00268512,.00001908,0.0278,271.0806,196.4429,252.4903,0,U,52255,999,1536,0,-.336E-5,0
NILESAT 301,2022-061A,2026-06-08T15:03:36.194400,1.00271880,.00054073,0.0573,29.1411,14.7863,71.9873,0,U,52817,999,1465,0,-.42E-6,0
CMS-02 (GSAT-24),2022-067A,2026-06-10T21:00:32.008608,1.00270239,.00016283,0.0421,130.5636,238.5950,288.2032,0,U,52903,999,1454,0,-.147E-5,0
MEASAT 3D,2022-067B,2026-06-11T11:58:11.601696,1.00269263,.0000598,0.0385,314.5524,104.6134,111.7111,0,U,52904,999,1459,0,-.224E-5,0
SES-22,2022-071A,2026-06-11T14:17:47.953824,1.00268986,.0001361,0.0165,301.7055,127.3713,266.3223,0,U,52933,999,746,0,.121E-5,0
WFOV (USA 332),2022-073A,2026-06-11T13:48:43.553376,1.00269624,.00021547,3.6958,78.5978,238.8559,268.8999,0,U,52940,999,1431,0,-.347E-5,0
TIANLIAN 2-03,2022-078A,2026-06-11T06:27:02.344896,1.00271794,.00015968,0.6570,76.9255,322.4291,327.6093,0,U,53100,999,1448,0,.89E-6,0
SBIRS GEO-6 (USA 336),2022-092A,2026-06-11T13:54:18.880416,1.00270855,.00018215,3.2680,317.3903,119.5000,170.6244,0,U,53355,999,1417,0,-.276E-5,0
EUTELSAT KONNECT VHTS,2022-110A,2026-06-09T15:03:40.826304,1.00269352,.00026035,0.0647,103.4177,320.1706,63.0435,0,U,53765,999,676,0,.34E-6,0
ZHONGXING-1E,2022-112A,2026-06-11T11:55:19.377984,1.00269691,.00002414,0.0524,102.4236,193.9869,223.6538,0,U,53813,999,1379,0,-.132E-5,0
